1 45736U 20038G   22365.32208049  .00023153  00000-0  50431-3 0  9994
2 45736  53.0612 347.9553 0000852 181.0082 179.0922 15.44194031141777
1 45736U 20038G   22365.32208049  .00023153  00000-0  50431-3 0  9994
2 45736  53.0612 347.9553 0000852 181.0082 179.0922 15.44194031142891
1 45736U 20038G   23001.35761168  .00023245  00000-0  50547-3 0  9991
2 45736  53.0614 343.0306 0000755 183.7024 176.3976 15.44241035141933
1 45736U 20038G   23001.35761168  .00023245  00000-0  50547-3 0  9991
2 45736  53.0614 343.0306 0000755 183.7024 176.3976 15.44241035143058
1 45736U 20038G   23002.32839354  .00023588  00000-0  51200-3 0  9999
2 45736  53.0616 338.4131 0000661 185.3377 174.7622 15.44285651142083
1 45736U 20038G   23003.29914943  .00020891  00000-0  45405-3 0  9998
2 45736  53.0612 333.7957 0000599 187.4821 172.6176 15.44324401142235
1 45736U 20038G   23003.29914943  .00020891  00000-0  45405-3 0  9998
2 45736  53.0612 333.7957 0000599 187.4821 172.6176 15.44324401143359
1 45736U 20038G   23004.33459623  .00022911  00000-0  49625-3 0  9996
2 45736  53.0610 328.8702 0000588 186.1728 173.9271 15.44365814143511
1 45736U 20038G   23004.59345225  .00027010  00000-0  58279-3 0  9996
2 45736  53.0610 327.6389 0000611 186.8884 173.2113 15.44382665142437
1 45736U 20038G   23005.17587139  .00024278  00000-0  52445-3 0  9995
2 45736  53.0611 324.8689 0000554 182.9358 177.1644 15.44410019142526
1 45736U 20038G   23005.17587139  .00024278  00000-0  52445-3 0  9995
2 45736  53.0611 324.8689 0000554 182.9358 177.1644 15.44410019143640
1 45736U 20038G   23006.27596396  .00027535  00000-0  59213-3 0  9991
2 45736  53.0618 319.6355 0000455 185.1085 174.9916 15.44471179142696
1 45736U 20038G   23006.27596396  .00027535  00000-0  59213-3 0  9991
2 45736  53.0618 319.6355 0000455 185.1085 174.9916 15.44471179143811
1 45736U 20038G   23007.24659909  .00025533  00000-0  54893-3 0  9994
2 45736  53.0616 315.0174 0000394 189.9535 170.1463 15.44521651142840
1 45736U 20038G   23007.57013673  .00025529  00000-0  54853-3 0  9993
2 45736  53.0617 313.4776 0000407 193.0057 167.0939 15.44539322142893
1 45736U 20038G   23007.57013673  .00025529  00000-0  54853-3 0  9993
2 45736  53.0617 313.4776 0000407 193.0057 167.0939 15.44539322144019
1 45736U 20038G   23008.54073147  .00023282  00000-0  50041-3 0  9992
2 45736  53.0614 308.8598 0000384 189.5859 170.5139 15.44583973143044
1 45736U 20038G   23008.54073147  .00023282  00000-0  50041-3 0  9992
2 45736  53.0614 308.8598 0000384 189.5859 170.5139 15.44583973144168
1 45736U 20038G   23009.25248177  .00023711  00000-0  50885-3 0  9991
2 45736  53.0612 305.4736 0000357 193.6999 166.3997 15.44619060143154
1 45736U 20038G   23010.22302460  .00026298  00000-0  56225-3 0  9993
2 45736  53.0612 300.8555 0000302 183.9281 176.1723 15.44668504143308
1 45736U 20038G   23010.22302460  .00026298  00000-0  56225-3 0  9993
2 45736  53.0612 300.8555 0000302 183.9281 176.1723 15.44668504144422
1 45736U 20038G   23011.51703678  .00027390  00000-0  58404-3 0  9997
2 45736  53.0614 294.6970 0000332 150.3226 209.7798 15.44724467143509
1 45736U 20038G   23011.77583559  .00021941  00000-0  46990-3 0  9992
2 45736  53.0614 293.4653 0000497 149.4462 210.6572 15.44728373143542
1 45736U 20038G   23011.77583559  .00021941  00000-0  46990-3 0  9992
2 45736  53.0614 293.4653 0000497 149.4462 210.6572 15.44728373144666
1 45736U 20038G   23012.94040082  .00024506  00000-0  52257-3 0  9994
2 45736  53.0602 287.9219 0000305 169.0550 191.0462 15.44786294143725
1 45736U 20038G   23012.94040082  .00024506  00000-0  52257-3 0  9994
2 45736  53.0602 287.9219 0000305 169.0550 191.0462 15.44786294144849
1 45736U 20038G   23013.06979338  .00024221  00000-0  51645-3 0  9997
2 45736  53.0600 287.3066 0000271 166.6270 193.4743 15.44796772143743
1 45736U 20038G   23014.10492595  .00021706  00000-0  46335-3 0  9993
2 45736  53.0602 282.3789 0000248 198.8985 161.2012 15.44831690145020
1 45736U 20038G   23015.07533182  .00031428  00000-0  66470-3 0  9992
2 45736  53.0601 277.7599 0000186 198.7742 161.3257 15.44891987144056
1 45736U 20038G   23015.07533182  .00031428  00000-0  66470-3 0  9992
2 45736  53.0601 277.7599 0000186 198.7742 161.3257 15.44891987145170
1 45736U 20038G   23015.91631217  .00042130  00000-0  88456-3 0  9993
2 45736  53.0605 273.7556 0000167 212.0903 148.0093 15.44966165144182
1 45736U 20038G   23015.98100068  .00045502  00000-0  95393-3 0  9999
2 45736  53.0602 273.4473 0000203 207.6611 152.4384 15.44975455145311
1 45736U 20038G   23016.43381668  .00044583  00000-0  93363-3 0  9990
2 45736  53.0604 271.2913 0000173 215.0918 145.0076 15.45017030144263
1 45736U 20038G   23016.69256391  .00038593  00000-0  80949-3 0  9992
2 45736  53.0601 270.0594 0000172 217.5908 142.5086 15.45035279144300
1 45736U 20038G   23017.08067973  .00035972  00000-0  75473-3 0  9996
2 45736  53.0602 268.2112 0000132 227.4731 132.6263 15.45060773145480
1 45736U 20038G   23017.40410415  .00031357  00000-0  65897-3 0  9997
2 45736  53.0605 266.6713 0000130 228.4554 131.6441 15.45080549144416
1 45736U 20038G   23018.11562359  .00028918  00000-0  60773-3 0  9998
2 45736  53.0601 263.2824 0000151 224.4703 135.6291 15.45122806145649
1 45736U 20038G   23018.37435246  .00036374  00000-0  76083-3 0  9996
2 45736  53.0600 262.0504 0000167 235.0530 125.0460 15.45145293144569
1 45736U 20038G   23018.89180205  .00034951  00000-0  73074-3 0  9991
2 45736  53.0598 259.5862 0000171 242.5110 117.5878 15.45178072144644
1 45736U 20038G   23018.95648213  .00037081  00000-0  77434-3 0  9997
2 45736  53.0597 259.2785 0000159 249.8480 110.2509 15.45184855144658
1 45736U 20038G   23018.95648213  .00037081  00000-0  77434-3 0  9997
2 45736  53.0597 259.2785 0000159 249.8480 110.2509 15.45184855145772
1 45736U 20038G   23020.05601769  .00038257  00000-0  79635-3 0  9997
2 45736  53.0591 254.0421 0000253 261.1623  98.9354 15.45263773145943
1 45736U 20038G   23021.02615110  .00035689  00000-0  74211-3 0  9991
2 45736  53.0591 249.4211 0000321 304.8370  55.2606 15.45328199146095
1 45736U 20038G   23023.09563205  .00031119  00000-0  64562-3 0  9999
2 45736  53.0580 239.5614 0000533 326.7254  33.3718 15.45462369146414
1 45736U 20038G   23024.45363382  .00032577  00000-0  67338-3 0  9997
2 45736  53.0580 233.0900 0000452 329.3700  30.7279 15.45547755146625
1 45736U 20038G   23025.55291539  .00027487  00000-0  56869-3 0  9994
2 45736  53.0588 227.8508 0000557 334.7774  25.3205 15.45610023145677
1 45736U 20038G   23025.81156358  .00028824  00000-0  59553-3 0  9991
2 45736  53.0589 226.6185 0000649 339.3008  20.7972 15.45624726145719
1 45736U 20038G   23025.81156358  .00028824  00000-0  59553-3 0  9991
2 45736  53.0589 226.6185 0000649 339.3008  20.7972 15.45624726146833
1 45736U 20038G   23026.52283237  .00029808  00000-0  61458-3 0  9997
2 45736  53.0588 223.2282 0000682 342.4636  17.6346 15.45667804145824
1 45736U 20038G   23026.84613070  .00028829  00000-0  59444-3 0  9998
2 45736  53.0590 221.6876 0000760 343.8010  16.2972 15.45684041146997
1 45736U 20038G   23027.55737333  .00025927  00000-0  53498-3 0  9995
2 45736  53.0586 218.2971 0000888 343.3201  16.7776 15.45722311145986
1 45736U 20038G   23027.81600313  .00025871  00000-0  53363-3 0  9990
2 45736  53.0587 217.0648 0000945 345.1373  14.9605 15.45733943146029
1 45736U 20038G   23028.13928666  .00027251  00000-0  56117-3 0  9994
2 45736  53.0586 215.5232 0000897 344.0692  16.0286 15.45752497147190
1 45736U 20038G   23028.52722246  .00025684  00000-0  52915-3 0  9993
2 45736  53.0586 213.6739 0000887 344.6548  15.4431 15.45772162146135
1 45736U 20038G   23028.91515089  .00028604  00000-0  58756-3 0  9995
2 45736  53.0590 211.8252 0000820 327.7734  32.3222 15.45799281146199
1 45736U 20038G   23029.49704005  .00023168  00000-0  47753-3 0  9992
2 45736  53.0588 209.0508 0001086 346.2823  13.8154 15.45820802147406
1 45736U 20038G   23029.88495878  .00021644  00000-0  44653-3 0  9993
2 45736  53.0588 207.2016 0001124 349.6468  10.4515 15.45837939146340
1 45736U 20038G   23030.53148012  .00019642  00000-0  40573-3 0  9994
2 45736  53.0588 204.1191 0001194 352.3255   7.7733 15.45866652146448
1 45736U 20038G   23030.72543436  .00019550  00000-0  40377-3 0  9994
2 45736  53.0586 203.1947 0001266 353.0043   7.0945 15.45874243147597
1 45736U 20038G   23030.91938766  .00020200  00000-0  41675-3 0  9995
2 45736  53.0585 202.2701 0001300 353.5603   6.5387 15.45882795146505
1 45736U 20038G   23031.50124107  .00021614  00000-0  44484-3 0  9998
2 45736  53.0581 199.4954 0001310 355.2020   4.8974 15.45908656146598
1 45736U 20038G   23031.82448851  .00023808  00000-0  48872-3 0  9990
2 45736  53.0580 197.9546 0001402 355.9741   4.1254 15.45924521146645
